{"type": "FeatureCollection", "features": [{"type": "Feature", "properties": {"norad_id": 32275, "name": "COSMOS 2433 (720)", "group": "glo-ops", "lat": -35.945540099298846, "lon": -57.40724107365334, "alt_km": 19128.395841833462, "timestamp": "2025-12-26T15:29:39.700322+00:00", "meta": {"OBJECT_NAME": "COSMOS 2433 (720)", "OBJECT_ID": "2007-052A", "EPOCH": "2025-12-26T05:29:12.769728", "MEAN_MOTION": 2.1310417, "ECCENTRICITY": 0.00050938, "INCLINATION": 65.676, "RA_OF_ASC_NODE": 321.7529, "ARG_OF_PERICENTER": 257.2732, "MEAN_ANOMALY": 102.6736, "EPHEMERIS_TYPE": 0, "CLASSIFICATION_TYPE": "U", "NORAD_CAT_ID": 32275, "ELEMENT_SET_NO": 999, "REV_AT_EPOCH": 14137, "BSTAR": 0, "MEAN_MOTION_DOT": -3.3e-07, "MEAN_MOTION_DDOT": 0}, "tle": {"line1": "1 32275U 07052A   25360.22862002 -.00000033  00000+0  00000+0 0  9996", "line2": "2 32275  65.6760 321.7529 0005093 257.2732 102.6736  2.13104170141375"}}, "geometry": {"type": "Point", "coordinates": [-57.40724107365334, -35.945540099298846]}}, {"type": "Feature", "properties": {"norad_id": 32276, "name": "COSMOS 2432 (719)", "group": "glo-ops", "lat": -65.04917538190548, "lon": -142.02428570710592, "alt_km": 19117.940638609714, "timestamp": "2025-12-26T15:29:39.700345+00:00", "meta": {"OBJECT_NAME": "COSMOS 2432 (719)", "OBJECT_ID": "2007-052B", "EPOCH": "2025-12-24T04:32:38.772960", "MEAN_MOTION": 2.13103387, "ECCENTRICITY": 0.00113791, "INCLINATION": 65.6931, "RA_OF_ASC_NODE": 321.9458, "ARG_OF_PERICENTER": 314.7871, "MEAN_ANOMALY": 225.1187, "EPHEMERIS_TYPE": 0, "CLASSIFICATION_TYPE": "U", "NORAD_CAT_ID": 32276, "ELEMENT_SET_NO": 999, "REV_AT_EPOCH": 14135, "BSTAR": 0, "MEAN_MOTION_DOT": -3.3e-07, "MEAN_MOTION_DDOT": 0}, "tle": {"line1": "1 32276U 07052B   25358.18933765 -.00000033  00000+0  00000+0 0  9994", "line2": "2 32276  65.6931 321.9458 0011379 314.7871 225.1187  2.13103387141354"}}, "geometry": {"type": "Point", "coordinates": [-142.02428570710592, -65.04917538190548]}}, {"type": "Feature", "properties": {"norad_id": 32393, "name": "COSMOS 2434 (721)", "group": "glo-ops", "lat": -27.173210712537532, "lon": 32.04501684467635, "alt_km": 19142.858659342495, "timestamp": "2025-12-26T15:29:39.700361+00:00", "meta": {"OBJECT_NAME": "COSMOS 2434 (721)", "OBJECT_ID": "2007-065A", "EPOCH": "2025-12-26T03:18:00.211680", "MEAN_MOTION": 2.13101396, "ECCENTRICITY": 0.00048072, "INCLINATION": 64.3159, "RA_OF_ASC_NODE": 197.7509, "ARG_OF_PERICENTER": 72.2168, "MEAN_ANOMALY": 108.4046, "EPHEMERIS_TYPE": 0, "CLASSIFICATION_TYPE": "U", "NORAD_CAT_ID": 32393, "ELEMENT_SET_NO": 999, "REV_AT_EPOCH": 14008, "BSTAR": 0, "MEAN_MOTION_DOT": 1.11e-06, "MEAN_MOTION_DDOT": 0}, "tle": {"line1": "1 32393U 07065A   25360.13750245  .00000111  00000+0  00000+0 0  9992", "line2": "2 32393  64.3159 197.7509 0004807  72.2168 108.4046  2.13101396140085"}}, "geometry": {"type": "Point", "coordinates": [32.04501684467635, -27.173210712537532]}}, {"type": "Feature", "properties": {"norad_id": 32395, "name": "COSMOS 2436 (723)", "group": "glo-ops", "lat": -15.019328195607766, "lon": -169.61085012193968, "alt_km": 19091.93550020383, "timestamp": "2025-12-26T15:29:39.700374+00:00", "meta": {"OBJECT_NAME": "COSMOS 2436 (723)", "OBJECT_ID": "2007-065C", "EPOCH": "2025-12-25T23:03:53.315136", "MEAN_MOTION": 2.13100182, "ECCENTRICITY": 0.00178233, "INCLINATION": 64.3246, "RA_OF_ASC_NODE": 197.8273, "ARG_OF_PERICENTER": 10.3053, "MEAN_ANOMALY": 167.956, "EPHEMERIS_TYPE": 0, "CLASSIFICATION_TYPE": "U", "NORAD_CAT_ID": 32395, "ELEMENT_SET_NO": 999, "REV_AT_EPOCH": 14003, "BSTAR": 0, "MEAN_MOTION_DOT": 1.1e-06, "MEAN_MOTION_DDOT": 0}, "tle": {"line1": "1 32395U 07065C   25359.96103374  .00000110  00000+0  00000+0 0  9997", "line2": "2 32395  64.3246 197.8273 0017823  10.3053 167.9560  2.13100182140039"}}, "geometry": {"type": "Point", "coordinates": [-169.61085012193968, -15.019328195607766]}}, {"type": "Feature", "properties": {"norad_id": 36111, "name": "COSMOS 2456 (730)", "group": "glo-ops", "lat": 6.8501957216627885, "lon": 80.09700341311786, "alt_km": 19126.61894260075, "timestamp": "2025-12-26T15:29:39.700386+00:00", "meta": {"OBJECT_NAME": "COSMOS 2456 (730)", "OBJECT_ID": "2009-070A", "EPOCH": "2025-12-26T06:16:15.549312", "MEAN_MOTION": 2.13103733, "ECCENTRICITY": 0.0003681, "INCLINATION": 64.907, "RA_OF_ASC_NODE": 76.8759, "ARG_OF_PERICENTER": 294.867, "MEAN_ANOMALY": 137.8789, "EPHEMERIS_TYPE": 0, "CLASSIFICATION_TYPE": "U", "NORAD_CAT_ID": 36111, "ELEMENT_SET_NO": 999, "REV_AT_EPOCH": 12474, "BSTAR": 0, "MEAN_MOTION_DOT": -8e-08, "MEAN_MOTION_DDOT": 0}, "tle": {"line1": "1 36111U 09070A   25360.26129108 -.00000008  00000+0  00000+0 0  9990", "line2": "2 36111  64.9070  76.8759 0003681 294.8670 137.8789  2.13103733124740"}}, "geometry": {"type": "Point", "coordinates": [80.09700341311786, 6.8501957216627885]}}, {"type": "Feature", "properties": {"norad_id": 36112, "name": "COSMOS 2457 (733)", "group": "glo-ops", "lat": 38.50699406905465, "lon": -125.1510358218238, "alt_km": 19115.424645601775, "timestamp": "2025-12-26T15:29:39.700398+00:00", "meta": {"OBJECT_NAME": "COSMOS 2457 (733)", "OBJECT_ID": "2009-070B", "EPOCH": "2025-12-25T12:53:15.895392", "MEAN_MOTION": 2.13101109, "ECCENTRICITY": 0.0004451, "INCLINATION": 64.8923, "RA_OF_ASC_NODE": 76.7479, "ARG_OF_PERICENTER": 163.6164, "MEAN_ANOMALY": 202.4906, "EPHEMERIS_TYPE": 0, "CLASSIFICATION_TYPE": "U", "NORAD_CAT_ID": 36112, "ELEMENT_SET_NO": 999, "REV_AT_EPOCH": 12473, "BSTAR": 0, "MEAN_MOTION_DOT": -5e-08, "MEAN_MOTION_DDOT": 0}, "tle": {"line1": "1 36112U 09070B   25359.53698953 -.00000005  00000+0  00000+0 0  9995", "line2": "2 36112  64.8923  76.7479 0004451 163.6164 202.4906  2.13101109124736"}}, "geometry": {"type": "Point", "coordinates": [-125.1510358218238, 38.50699406905465]}}, {"type": "Feature", "properties": {"norad_id": 36402, "name": "COSMOS 2460 (732)", "group": "glo-ops", "lat": 38.94318718055302, "lon": 118.70442482841366, "alt_km": 19130.46042566365, "timestamp": "2025-12-26T15:29:39.700410+00:00", "meta": {"OBJECT_NAME": "COSMOS 2460 (732)", "OBJECT_ID": "2010-007C", "EPOCH": "2025-12-25T05:13:15.714336", "MEAN_MOTION": 2.13106358, "ECCENTRICITY": 0.00024876, "INCLINATION": 65.5229, "RA_OF_ASC_NODE": 320.3522, "ARG_OF_PERICENTER": 284.3328, "MEAN_ANOMALY": 196.3839, "EPHEMERIS_TYPE": 0, "CLASSIFICATION_TYPE": "U", "NORAD_CAT_ID": 36402, "ELEMENT_SET_NO": 999, "REV_AT_EPOCH": 12302, "BSTAR": 0, "MEAN_MOTION_DOT": -3.2e-07, "MEAN_MOTION_DDOT": 0}, "tle": {"line1": "1 36402U 10007C   25359.21754299 -.00000032  00000+0  00000+0 0  9990", "line2": "2 36402  65.5229 320.3522 0002487 284.3328 196.3839  2.13106358123020"}}, "geometry": {"type": "Point", "coordinates": [118.70442482841366, 38.94318718055302]}}, {"type": "Feature", "properties": {"norad_id": 37867, "name": "COSMOS 2476 (744)", "group": "glo-ops", "lat": -64.49764389256778, "lon": 2.958437512911745, "alt_km": 19088.989303971863, "timestamp": "2025-12-26T15:29:39.700422+00:00", "meta": {"OBJECT_NAME": "COSMOS 2476 (744)", "OBJECT_ID": "2011-064A", "EPOCH": "2025-12-26T06:43:38.713152", "MEAN_MOTION": 2.1310388, "ECCENTRICITY": 0.00245599, "INCLINATION": 65.1691, "RA_OF_ASC_NODE": 78.7136, "ARG_OF_PERICENTER": 235.1002, "MEAN_ANOMALY": 120.5776, "EPHEMERIS_TYPE": 0, "CLASSIFICATION_TYPE": "U", "NORAD_CAT_ID": 37867, "ELEMENT_SET_NO": 999, "REV_AT_EPOCH": 11007, "BSTAR": 0, "MEAN_MOTION_DOT": -6e-08, "MEAN_MOTION_DDOT": 0}, "tle": {"line1": "1 37867U 11064A   25360.28030918 -.00000006  00000+0  00000+0 0  9995", "line2": "2 37867  65.1691  78.7136 0024559 235.1002 120.5776  2.13103880110074"}}, "geometry": {"type": "Point", "coordinates": [2.958437512911745, -64.49764389256778]}}, {"type": "Feature", "properties": {"norad_id": 37868, "name": "COSMOS 2477 (745)", "group": "glo-ops", "lat": 64.37751812333106, "lon": -175.73482325828016, "alt_km": 19164.31462400077, "timestamp": "2025-12-26T15:29:39.700433+00:00", "meta": {"OBJECT_NAME": "COSMOS 2477 (745)", "OBJECT_ID": "2011-064B", "EPOCH": "2025-12-24T15:22:57.950400", "MEAN_MOTION": 2.13103036, "ECCENTRICITY": 0.00215718, "INCLINATION": 65.1748, "RA_OF_ASC_NODE": 78.8466, "ARG_OF_PERICENTER": 235.4688, "MEAN_ANOMALY": 123.4303, "EPHEMERIS_TYPE": 0, "CLASSIFICATION_TYPE": "U", "NORAD_CAT_ID": 37868, "ELEMENT_SET_NO": 999, "REV_AT_EPOCH": 11003, "BSTAR": 0, "MEAN_MOTION_DOT": 1e-08, "MEAN_MOTION_DDOT": 0}, "tle": {"line1": "1 37868U 11064B   25358.64094850  .00000001  00000+0  00000+0 0  9992", "line2": "2 37868  65.1748  78.8466 0021571 235.4688 123.4303  2.13103036110036"}}, "geometry": {"type": "Point", "coordinates": [-175.73482325828016, 64.37751812333106]}}, {"type": "Feature", "properties": {"norad_id": 37869, "name": "COSMOS 2475 (743)", "group": "glo-ops", "lat": 46.25441410259028, "lon": 107.67655584416212, "alt_km": 19190.228829979635, "timestamp": "2025-12-26T15:29:39.700445+00:00", "meta": {"OBJECT_NAME": "COSMOS 2475 (743)", "OBJECT_ID": "2011-064C", "EPOCH": "2025-12-26T02:48:59.782176", "MEAN_MOTION": 2.13101658, "ECCENTRICITY": 0.00268162, "INCLINATION": 65.1822, "RA_OF_ASC_NODE": 78.8169, "ARG_OF_PERICENTER": 249.2724, "MEAN_ANOMALY": 118.1607, "EPHEMERIS_TYPE": 0, "CLASSIFICATION_TYPE": "U", "NORAD_CAT_ID": 37869, "ELEMENT_SET_NO": 999, "REV_AT_EPOCH": 11008, "BSTAR": 0, "MEAN_MOTION_DOT": -5e-08, "MEAN_MOTION_DDOT": 0}, "tle": {"line1": "1 37869U 11064C   25360.11735859 -.00000005  00000+0  00000+0 0  9994", "line2": "2 37869  65.1822  78.8169 0026816 249.2724 118.1607  2.13101658110082"}}, "geometry": {"type": "Point", "coordinates": [107.67655584416212, 46.25441410259028]}}]}